O3B FM5                 
1 39188U 13031A   25066.73334781 -.00000028  00000+0  00000+0 0  9991
2 39188   0.0542 341.1341 0002722  10.7031   8.1523  5.00115266213690
O3B FM2                 
1 39190U 13031C   25065.68120005 -.00000025  00000+0  00000+0 0  9996
2 39190   0.0451  18.1381 0002673 330.4133  11.4370  5.00115681213729
O3B PFM                 
1 39191U 13031D   25066.70612012 -.00000028  00000+0  00000+0 0  9998
2 39191   0.0514 350.5103 0002684 355.9630  13.5134  5.00115152213332
O3B FM3                 
1 40079U 14038A   25065.16193098 -.00000023  00000+0  00000+0 0  9995
2 40079   0.0462   2.2948 0004858 324.3359  33.3334  5.00114798189634
O3B FM7                 
1 40080U 14038B   25066.70720085 -.00000028  00000+0  00000+0 0  9995
2 40080   0.0425   5.3026 0002105  25.9802 328.7236  5.00115337194544
O3B FM6                 
1 40081U 14038C   25066.73429930 -.00000028  00000+0  00000+0 0  9994
2 40081   0.0469   3.3860 0002788 344.8238  11.7775  5.00115551194488
O3B FM8                 
1 40082U 14038D   25066.78775356 -.00000028  00000+0  00000+0 0  9996
2 40082   0.0459   3.9289 0002662 340.6233  15.4336  5.00115664194613
O3B FM10                
1 40348U 14083A   25065.21509609 -.00000024  00000+0  00000+0 0  9990
2 40348   0.0536 355.2442 0002591 348.7343  16.0080  5.00114424186662
O3B FM11                
1 40349U 14083B   25067.02728086 -.00000028  00000+0  00000+0 0  9998
2 40349   0.0490 352.9806 0002714   9.1890 357.8253  5.00115650186752
O3B FM12                
1 40350U 14083C   25066.85464940 -.00000028  00000+0  00000+0 0  9996
2 40350   0.0491 353.9516 0002850 355.4101  10.6261  5.00115741186582
O3B FM9                 
1 40351U 14083D   25065.68203382 -.00000025  00000+0  00000+0 0  9995
2 40351   0.0484 351.7377 0002654 355.6517  12.5985  5.00115413186682
LEO 1 (LEO VANTAGE 1)   
1 43113U 18004C   25066.83003060  .00004073  00000+0  29372-3 0  9993
2 43113  99.2933 279.5698 0364531  66.4263 297.4777 14.64120810369158
O3B FM15                
1 43231U 18024A   25066.34827625 -.00000027  00000+0  00000+0 0  9992
2 43231   0.0562 357.2584 0003035 351.2895  11.4393  5.00115301127676
O3B FM16                
1 43232U 18024B   25066.60073199 -.00000027  00000+0  00000+0 0  9991
2 43232   0.0603 358.0108 0003000 350.9434  11.0331  5.00115594127606
O3B FM14                
1 43233U 18024C   25066.84115222 -.00000028  00000+0  00000+0 0  9993
2 43233   0.0609 359.2698 0002777 347.1298  13.5868  5.00115222127628
O3B FM13                
1 43234U 18024D   25055.90046087 -.00000016  00000+0  00000+0 0  9998
2 43234   0.0449 326.2729 0003511  13.9713  19.7377  5.00115330127181
O3B FM20                
1 44112U 19020A   25066.06759793 -.00000026  00000+0  00000+0 0  9996
2 44112   0.0528 356.4992 0003223 357.2486   6.2424  5.00115192108193
O3B FM19                
1 44113U 19020B   25055.50068721 -.00000016  00000+0  00000+0 0  9997
2 44113   0.0343 340.2308 0001808  24.8096 354.9571  5.00115336107546
O3B FM17                
1 44114U 19020C   25066.97425719 -.00000028  00000+0  00000+0 0  9998
2 44114   0.0619  14.2843 0003111 334.8994  10.8035  5.00115084108336
O3B FM18                
1 44115U 19020D   25066.72056871 -.00000028  00000+0  00000+0 0  9991
2 44115   0.0528 356.1761 0002917 350.6082  13.2020  5.00115015108302
SALSAT                  
1 46495U 20068K   25066.85237365  .00011127  00000+0  51175-3 0  9995
2 46495  97.8520  40.7420 0014055 121.2440 239.0173 15.20443680244274
O3B MPOWER F1           
1 54755U 22174A   25066.71948271 -.00000028  00000+0  00000+0 0  9999
2 54755   0.0386   0.5356 0005212 331.0024 247.4554  5.00116693 42027
O3B MPOWER F2           
1 54756U 22174B   25066.73137919 -.00000028  00000+0  00000+0 0  9991
2 54756   0.0386   6.3053 0005838 339.3757  14.2963  5.00116439 42105
O3B MPOWER F4           
1 56367U 23059A   25066.83088002 -.00000028  00000+0  00000+0 0  9993
2 56367   0.0496 343.6853 0004550 350.0184  26.2670  5.00117343 35279
O3B MPOWER F3           
1 56368U 23059B   25066.69784778 -.00000028  00000+0  00000+0 0  9991
2 56368   0.0509 342.9369 0006342   2.2072  14.8312  5.00116681 31391
